NORAD_CAT_ID,OBJECT_NAME,OBJECT_TYPE,EPOCH,MEAN_MOTION,ECCENTRICITY,INCLINATION,RA_OF_ASC_NODE,ARG_OF_PERICENTER,MEAN_ANOMALY,BSTAR,MEAN_MOTION_DOT,MEAN_MOTION_DDOT,TLE_LINE0,TLE_LINE1,TLE_LINE2,SEMIMAJOR_AXIS,PERIOD,APOGEE,PERIGEE,DECAYED
53839.0,STARLINK-4784,PAYLOAD,2024-07-04 08:14:08,15.08842641,0.0001341,53.217,167.7883,90.3452,269.7694,9.6744e-05,1.252e-05,0.0,0 STARLINK-4784,1 53839U 22114X   24186.34314965  .00001252  00000-0  96744-4 0  9998,2 53839  53.2170 167.7883 0001341  90.3452 269.7694 15.08842641100373,6917.872,95.437,540.665,538.81,0.0
53839.0,STARLINK-4784,PAYLOAD,2024-07-04 16:11:04,15.088375,0.0001338,53.217,166.301,90.9329,269.1817,4.4094e-05,4.14e-06,0.0,0 STARLINK-4784,1 53839U 22114X   24186.67435420  .00000414  00000-0  44094-4 0  9994,2 53839  53.2170 166.3010 0001338  90.9329 269.1817 15.08837500 99887,6917.888,95.438,540.679,538.827,0.0
53839.0,STARLINK-4784,PAYLOAD,2024-07-05 04:54:09,15.08841038,0.0001353,53.2169,163.9211,93.6983,266.4164,4.8753e-05,4.88e-06,0.0,0 STARLINK-4784,1 53839U 22114X   24187.20427200  .00000488  00000-0  48753-4 0  9998,2 53839  53.2169 163.9211 0001353  93.6983 266.4164 15.08841038100502,6917.877,95.437,540.678,538.806,0.0
53839.0,STARLINK-4784,PAYLOAD,2024-07-05 16:01:50,15.08843091,0.0001359,53.217,161.8401,92.3909,267.7239,6.0784e-05,6.8e-06,0.0,0 STARLINK-4784,1 53839U 22114X   24187.66794985  .00000680  00000-0  60784-4 0  9997,2 53839  53.2170 161.8401 0001359  92.3909 267.7239 15.08843091100577,6917.871,95.437,540.676,538.796,0.0
53839.0,STARLINK-4784,PAYLOAD,2024-07-06 04:44:56,15.08839957,0.0001405,53.2173,159.4612,94.481,265.6343,5.9243e-06,-1.94e-06,0.0,0 STARLINK-4784,1 53839U 22114X   24188.19787323 -.00000194  00000-0  59243-5 0  9994,2 53839  53.2173 159.4612 0001405  94.4810 265.6343 15.08839957100112,6917.881,95.438,540.717,538.774,0.0
53839.0,STARLINK-4784,PAYLOAD,2024-07-06 07:55:42,15.0884123,0.0001416,53.2173,158.8663,94.8539,265.2615,1.7126e-05,-1.5e-07,0.0,0 STARLINK-4784,1 53839U 22114X   24188.33035191 -.00000015  00000-0  17126-4 0  9994,2 53839  53.2173 158.8663 0001416  94.8539 265.2615 15.08841230100671,6917.877,95.437,540.721,538.762,0.0
53839.0,STARLINK-4784,PAYLOAD,2024-07-07 07:46:29,15.08836502,0.0001458,53.2179,154.406,95.5371,264.5787,-4.6904e-06,-3.63e-06,0.0,0 STARLINK-4784,1 53839U 22114X   24189.32395701 -.00000363  00000-0 -46904-5 0  9994,2 53839  53.2179 154.4060 0001458  95.5371 264.5787 15.08836502100283,6917.891,95.438,540.765,538.747,0.0
53839.0,STARLINK-4784,PAYLOAD,2024-07-08 13:58:49,15.08839954,0.0001239,53.2167,148.7584,93.1395,266.9739,2.9585e-05,1.83e-06,0.0,0 STARLINK-4784,1 53839U 22114X   24190.58251553  .00000183  00000-0  29585-4 0  9993,2 53839  53.2167 148.7584 0001239  93.1395 266.9739 15.08839954101013,6917.881,95.438,540.603,538.888,0.0
53839.0,STARLINK-4784,PAYLOAD,2024-07-09 13:49:37,15.08834475,0.0001289,53.2178,144.2998,95.3653,264.7486,1.118e-05,-1.1e-06,0.0,0 STARLINK-4784,1 53839U 22114X   24191.57612299 -.00000110  00000-0  11180-4 0  9994,2 53839  53.2178 144.2998 0001289  95.3653 264.7486 15.08834475101165,6917.897,95.438,540.654,538.871,0.0
53839.0,STARLINK-4784,PAYLOAD,2024-07-10 07:18:51,15.0883999,0.0001558,53.2176,141.028,87.8331,272.284,2.3073e-05,7.9e-07,0.0,0 STARLINK-4784,1 53839U 22114X   24192.30476285  .00000079  00000-0  23073-4 0  9996,2 53839  53.2176 141.0280 0001558  87.8331 272.2840 15.08839990101277,6917.88,95.438,540.823,538.668,0.0
53839.0,STARLINK-4784,PAYLOAD,2024-07-11 03:58:51,15.08846018,0.0001507,53.218,137.1599,75.2561,284.8598,5.3786e-05,5.68e-06,0.0,0 STARLINK-4784,1 53839U 22114X   24193.16587912  .00000568  00000-0  53786-4 0  9998,2 53839  53.2180 137.1599 0001507  75.2561 284.8598 15.08846018100863,6917.862,95.437,540.77,538.684,0.0
53839.0,STARLINK-4784,PAYLOAD,2024-07-11 05:34:14,15.08849907,0.0001514,53.2182,136.862,74.657,285.4589,7.7364e-05,9.44e-06,0.0,0 STARLINK-4784,1 53839U 22114X   24193.23211577  .00000944  00000-0  77364-4 0  9993,2 53839  53.2182 136.8620 0001514  74.6570 285.4589 15.08849907101416,6917.85,95.437,540.762,538.668,0.0
53839.0,STARLINK-4784,PAYLOAD,2024-07-12 02:14:16,15.0883614,0.0001386,53.2173,132.9964,91.3608,268.7543,8.5245e-05,1.069e-05,0.0,0 STARLINK-4784,1 53839U 22114X   24194.09324307  .00001069  00000-0  85245-4 0  9990,2 53839  53.2173 132.9964 0001386  91.3608 268.7543 15.08836140101003,6917.892,95.438,540.716,538.798,0.0
53839.0,STARLINK-4784,PAYLOAD,2024-07-12 13:21:58,15.08842946,0.0001552,53.2179,130.9163,91.3072,268.8098,5.0679e-05,5.19e-06,0.0,0 STARLINK-4784,1 53839U 22114X   24194.55692131  .00000519  00000-0  50679-4 0  9996,2 53839  53.2179 130.9163 0001552  91.3072 268.8098 15.08842946101612,6917.871,95.437,540.81,538.663,0.0
53839.0,STARLINK-4784,PAYLOAD,2024-07-13 05:15:48,15.08851496,0.0001536,53.2182,127.9424,94.5896,265.5272,3.6245e-05,2.89e-06,0.0,0 STARLINK-4784,1 53839U 22114X   24195.21931483  .00000289  00000-0  36245-4 0  9993,2 53839  53.2182 127.9424 0001536  94.5896 265.5272 15.08851496101172,6917.845,95.437,540.773,538.648,0.0
53839.0,STARLINK-4784,PAYLOAD,2024-07-13 19:34:18,15.08837244,0.0001564,53.218,125.2671,87.6486,272.4686,-2.6707e-06,-3.31e-06,0.0,0 STARLINK-4784,1 53839U 22114X   24195.81548616 -.00000331  00000-0 -26707-5 0  9994,2 53839  53.2180 125.2671 0001564  87.6486 272.4686 15.08837244101265,6917.889,95.438,540.836,538.672,0.0
53839.0,STARLINK-4784,PAYLOAD,2024-07-13 22:45:03,15.08841965,0.0001393,53.215,124.6692,94.7367,265.3784,4.1305e-06,-2.22e-06,0.0,0 STARLINK-4784,1 53839U 22114X   24195.94796150 -.00000222  00000-0  41305-5 0  9995,2 53839  53.2150 124.6692 0001393  94.7367 265.3784 15.08841965101822,6917.874,95.437,540.703,538.776,0.0
53839.0,STARLINK-4784,PAYLOAD,2024-07-14 01:55:50,15.08841456,0.0001479,53.2181,124.078,90.1254,269.9908,3.4451e-05,2.6e-06,0.0,0 STARLINK-4784,1 53839U 22114X   24196.08044234  .00000260  00000-0  34451-4 0  9994,2 53839  53.2181 124.0780 0001479  90.1254 269.9908 15.08841456101843,6917.876,95.437,540.764,538.718,0.0
53839.0,STARLINK-4784,PAYLOAD,2024-07-14 22:35:50,15.08843565,0.0001482,53.2179,120.2127,89.527,270.5892,6.8619e-05,8.04e-06,0.0,0 STARLINK-4784,1 53839U 22114X   24196.94156013  .00000804  00000-0  68619-4 0  9995,2 53839  53.2179 120.2127 0001482  89.5270 270.5892 15.08843565101974,6917.869,95.437,540.76,538.709,0.0
53839.0,STARLINK-4784,PAYLOAD,2024-07-15 04:57:22,15.08852243,0.0001368,53.218,119.0211,91.6724,268.4425,7.0851e-05,8.4e-06,0.0,0 STARLINK-4784,1 53839U 22114X   24197.20651395  .00000840  00000-0  70851-4 0  9999,2 53839  53.2180 119.0211 0001368  91.6724 268.4425 15.08852243101473,6917.843,95.437,540.654,538.762,0.0
53839.0,STARLINK-4784,PAYLOAD,2024-07-15 11:18:55,15.08847392,0.0001272,53.2173,117.8304,91.2331,268.8807,4.5663e-05,4.39e-06,0.0,0 STARLINK-4784,1 53839U 22114X   24197.47147678  .00000439  00000-0  45663-4 0  9999,2 53839  53.2173 117.8304 0001272  91.2331 268.8807 15.08847392102050,6917.858,95.437,540.603,538.843,0.0
53839.0,STARLINK-4784,PAYLOAD,2024-07-15 22:26:38,15.08830422,0.0001573,53.2188,115.7536,98.5854,261.5317,9.4388e-06,-1.38e-06,0.0,0 STARLINK-4784,1 53839U 22114X   24197.93517151 -.00000138  00000-0  94388-5 0  9993,2 53839  53.2188 115.7536 0001573  98.5854 261.5317 15.08830422102124,6917.91,95.438,540.863,538.686,0.0
53839.0,STARLINK-4784,PAYLOAD,2024-07-16 04:48:11,15.08834991,0.0001471,53.219,114.5666,94.0376,266.0785,4.7767e-05,4.72e-06,0.0,0 STARLINK-4784,1 53839U 22114X   24198.20012894  .00000472  00000-0  47767-4 0  9996,2 53839  53.2190 114.5666 0001471  94.0376 266.0785 15.08834991101623,6917.896,95.438,540.778,538.743,0.0
53839.0,STARLINK-4784,PAYLOAD,2024-07-16 22:17:25,15.08841973,0.0001317,53.2177,111.2911,84.3142,275.8001,3.3406e-05,2.44e-06,0.0,0 STARLINK-4784,1 53839U 22114X   24198.92876528  .00000244  00000-0  33406-4 0  9999,2 53839  53.2177 111.2911 0001317  84.3142 275.8001 15.08841973102276,6917.874,95.437,540.65,538.828,0.0
53839.0,STARLINK-4784,PAYLOAD,2024-07-17 03:03:33,15.08860934,0.000126,53.2176,110.3969,94.0447,266.0689,0.00016517,2.343e-05,0.0,0 STARLINK-4784,1 53839U 22114X   24199.12746736  .00002343  00000-0  16517-3 0  9994,2 53839  53.2176 110.3969 0001260  94.0447 266.0689 15.08860934101766,6917.816,95.436,540.553,538.81,0.0
53839.0,STARLINK-4784,PAYLOAD,2024-07-17 11:00:30,15.08843006,0.0002246,53.2179,108.9102,76.4543,283.6699,3.782e-05,3.14e-06,0.0,0 STARLINK-4784,1 53839U 22114X   24199.45868452  .00000314  00000-0  37820-4 0  9997,2 53839  53.2179 108.9102 0002246  76.4543 283.6699 15.08843006101810,6917.871,95.437,541.29,538.182,0.0
53839.0,STARLINK-4784,PAYLOAD,2024-07-17 22:08:13,15.08823998,0.0001443,53.2187,106.8359,95.0021,265.1136,2.68e-05,1.38e-06,0.0,0 STARLINK-4784,1 53839U 22114X   24199.92237929  .00000138  00000-0  26800-4 0  9998,2 53839  53.2187 106.8359 0001443  95.0021 265.1136 15.08823998102423,6917.929,95.439,540.793,538.796,0.0
53839.0,STARLINK-4784,PAYLOAD,2024-07-18 10:51:18,15.08833275,0.000136,53.2176,104.4518,85.3395,274.7752,-3.722e-05,-8.8e-06,0.0,0 STARLINK-4784,1 53839U 22114X   24200.45229661 -.00000880  00000-0 -37220-4 0  9997,2 53839  53.2176 104.4518 0001360  85.3395 274.7752 15.08833275101963,6917.901,95.438,540.707,538.825,0.0
53839.0,STARLINK-4784,PAYLOAD,2024-07-18 21:59:00,15.08833858,0.000134,53.2177,102.3676,86.4227,273.6919,2.0523e-05,3.9e-07,0.0,0 STARLINK-4784,1 53839U 22114X   24200.91597742  .00000039  00000-0  20523-4 0  9998,2 53839  53.2177 102.3676 0001340  86.4227 273.6919 15.08833858102578,6917.899,95.438,540.691,538.837,0.0
53839.0,STARLINK-4784,PAYLOAD,2024-07-19 02:45:08,15.0885538,0.0001287,53.2177,101.4771,103.72,256.3935,8.4638e-06,-1.53e-06,0.0,0 STARLINK-4784,1 53839U 22114X   24201.11468387 -.00000153  00000-0  84638-5 0  9999,2 53839  53.2177 101.4771 0001287 103.7200 256.3935 15.08855380102062,6917.833,95.437,540.589,538.808,0.0
